{
    "week": 293,
    "satellites": [
        {
            "Name": "BEIDOU-3 M8 (C28)",
            "Line1": "1 43108U 18003B   24325.29272122 -.00000078  00000+0  00000+0 0  9995",
            "Line2": "2 43108  54.8126 322.2273 0005232 265.2978  94.6490  1.86230899 46677",
            "SatelliteNumber": "43108",
            "Classification": "U",
            "LaunchYear": "18",
            "LaunchNumber": "003",
            "PieceOfLaunch": "B",
            "EpochYear": "24",
            "EpochDay": 325.29272122,
            "FirstDerivativeMeanMotion": -7.8e-07,
            "SecondDerivativeMeanMotion": "00000+0",
            "BSTAR": "00000+0",
            "SetNumber": "999",
            "Inclination": 54.8126,
            "RAAN": 322.2273,
            "Eccentricity": 0.0005232,
            "ArgumentOfPerigee": 265.2978,
            "MeanAnomaly": 94.649,
            "MeanMotion": 1.86230899,
            "RevolutionNumber": "4667"
        },
        {
            "Name": "BEIDOU-3 M4 (C22)",
            "Line1": "1 43207U 18018A   24323.58601483 -.00000027  00000+0  00000+0 0  9991",
            "Line2": "2 43207  56.1507  82.2085 0003854  18.1694 341.8187  1.86231069 46026",
            "SatelliteNumber": "43207",
            "Classification": "U",
            "LaunchYear": "18",
            "LaunchNumber": "018",
            "PieceOfLaunch": "A",
            "EpochYear": "24",
            "EpochDay": 323.58601483,
            "FirstDerivativeMeanMotion": -2.7e-07,
            "SecondDerivativeMeanMotion": "00000+0",
            "BSTAR": "00000+0",
            "SetNumber": "999",
            "Inclination": 56.1507,
            "RAAN": 82.2085,
            "Eccentricity": 0.0003854,
            "ArgumentOfPerigee": 18.1694,
            "MeanAnomaly": 341.8187,
            "MeanMotion": 1.86231069,
            "RevolutionNumber": "4602"
        },
        {
            "Name": "BEIDOU-3 M3 (C21)",
            "Line1": "1 43208U 18018B   24325.80045450 -.00000016  00000+0  00000+0 0  9993",
            "Line2": "2 43208  56.1521  82.1392 0005567 313.7572  46.1799  1.86231278 46065",
            "SatelliteNumber": "43208",
            "Classification": "U",
            "LaunchYear": "18",
            "LaunchNumber": "018",
            "PieceOfLaunch": "B",
            "EpochYear": "24",
            "EpochDay": 325.8004545,
            "FirstDerivativeMeanMotion": -1.6e-07,
            "SecondDerivativeMeanMotion": "00000+0",
            "BSTAR": "00000+0",
            "SetNumber": "999",
            "Inclination": 56.1521,
            "RAAN": 82.1392,
            "Eccentricity": 0.0005567,
            "ArgumentOfPerigee": 313.7572,
            "MeanAnomaly": 46.1799,
            "MeanMotion": 1.86231278,
            "RevolutionNumber": "4606"
        },
        {
            "Name": "BEIDOU-3 M9 (C29)",
            "Line1": "1 43245U 18029A   24325.48335657 -.00000075  00000+0  00000+0 0  9996",
            "Line2": "2 43245  54.6976 319.9278 0002283 264.7175  95.2606  1.86232644 45219",
            "SatelliteNumber": "43245",
            "Classification": "U",
            "LaunchYear": "18",
            "LaunchNumber": "029",
            "PieceOfLaunch": "A",
            "EpochYear": "24",
            "EpochDay": 325.48335657,
            "FirstDerivativeMeanMotion": -7.5e-07,
            "SecondDerivativeMeanMotion": "00000+0",
            "BSTAR": "00000+0",
            "SetNumber": "999",
            "Inclination": 54.6976,
            "RAAN": 319.9278,
            "Eccentricity": 0.0002283,
            "ArgumentOfPerigee": 264.7175,
            "MeanAnomaly": 95.2606,
            "MeanMotion": 1.86232644,
            "RevolutionNumber": "4521"
        },
        {
            "Name": "BEIDOU-3 M10 (C30)",
            "Line1": "1 43246U 18029B   24324.33890716 -.00000077  00000+0  00000+0 0  9994",
            "Line2": "2 43246  54.6964 319.9957 0003710 343.8592  16.1320  1.86232788 45178",
            "SatelliteNumber": "43246",
            "Classification": "U",
            "LaunchYear": "18",
            "LaunchNumber": "029",
            "PieceOfLaunch": "B",
            "EpochYear": "24",
            "EpochDay": 324.33890716,
            "FirstDerivativeMeanMotion": -7.7e-07,
            "SecondDerivativeMeanMotion": "00000+0",
            "BSTAR": "00000+0",
            "SetNumber": "999",
            "Inclination": 54.6964,
            "RAAN": 319.9957,
            "Eccentricity": 0.000371,
            "ArgumentOfPerigee": 343.8592,
            "MeanAnomaly": 16.132,
            "MeanMotion": 1.86232788,
            "RevolutionNumber": "4517"
        },
        {
            "Name": "BEIDOU-2 IGSO-7 (C16)",
            "Line1": "1 43539U 18057A   24325.50831780 -.00000077  00000+0  00000+0 0  9996",
            "Line2": "2 43539  55.1497 168.0247 0078040 232.2625 315.5332  1.00264189 23385",
            "SatelliteNumber": "43539",
            "Classification": "U",
            "LaunchYear": "18",
            "LaunchNumber": "057",
            "PieceOfLaunch": "A",
            "EpochYear": "24",
            "EpochDay": 325.5083178,
            "FirstDerivativeMeanMotion": -7.7e-07,
            "SecondDerivativeMeanMotion": "00000+0",
            "BSTAR": "00000+0",
            "SetNumber": "999",
            "Inclination": 55.1497,
            "RAAN": 168.0247,
            "Eccentricity": 0.007804,
            "ArgumentOfPerigee": 232.2625,
            "MeanAnomaly": 315.5332,
            "MeanMotion": 1.00264189,
            "RevolutionNumber": "2338"
        },
        {
            "Name": "BEIDOU-3 M5 (C23)",
            "Line1": "1 43581U 18062A   24325.10140185  .00000009  00000+0  00000+0 0  9991",
            "Line2": "2 43581  54.1142 201.8278 0002362 328.5910  31.4823  1.86228787 42948",
            "SatelliteNumber": "43581",
            "Classification": "U",
            "LaunchYear": "18",
            "LaunchNumber": "062",
            "PieceOfLaunch": "A",
            "EpochYear": "24",
            "EpochDay": 325.10140185,
            "FirstDerivativeMeanMotion": 9e-08,
            "SecondDerivativeMeanMotion": "00000+0",
            "BSTAR": "00000+0",
            "SetNumber": "999",
            "Inclination": 54.1142,
            "RAAN": 201.8278,
            "Eccentricity": 0.0002362,
            "ArgumentOfPerigee": 328.591,
            "MeanAnomaly": 31.4823,
            "MeanMotion": 1.86228787,
            "RevolutionNumber": "4294"
        },
        {
            "Name": "BEIDOU-3 M6 (C24)",
            "Line1": "1 43582U 18062B   24324.96641695  .00000011  00000+0  00000+0 0  9990",
            "Line2": "2 43582  54.1138 201.8217 0006975  35.8730 324.2618  1.86229857 42943",
            "SatelliteNumber": "43582",
            "Classification": "U",
            "LaunchYear": "18",
            "LaunchNumber": "062",
            "PieceOfLaunch": "B",
            "EpochYear": "24",
            "EpochDay": 324.96641695,
            "FirstDerivativeMeanMotion": 1.1e-07,
            "SecondDerivativeMeanMotion": "00000+0",
            "BSTAR": "00000+0",
            "SetNumber": "999",
            "Inclination": 54.1138,
            "RAAN": 201.8217,
            "Eccentricity": 0.0006975,
            "ArgumentOfPerigee": 35.873,
            "MeanAnomaly": 324.2618,
            "MeanMotion": 1.86229857,
            "RevolutionNumber": "4294"
        },
        {
            "Name": "BEIDOU-3 M12 (C26)",
            "Line1": "1 43602U 18067A   24323.28934200  .00000034  00000+0  00000+0 0  9994",
            "Line2": "2 43602  54.2056 200.5745 0008450  32.7195 327.4282  1.86227675 42396",
            "SatelliteNumber": "43602",
            "Classification": "U",
            "LaunchYear": "18",
            "LaunchNumber": "067",
            "PieceOfLaunch": "A",
            "EpochYear": "24",
            "EpochDay": 323.289342,
            "FirstDerivativeMeanMotion": 3.4e-07,
            "SecondDerivativeMeanMotion": "00000+0",
            "BSTAR": "00000+0",
            "SetNumber": "999",
            "Inclination": 54.2056,
            "RAAN": 200.5745,
            "Eccentricity": 0.000845,
            "ArgumentOfPerigee": 32.7195,
            "MeanAnomaly": 327.4282,
            "MeanMotion": 1.86227675,
            "RevolutionNumber": "4239"
        },
        {
            "Name": "BEIDOU-3 M11 (C25)",
            "Line1": "1 43603U 18067B   24323.95976220  .00000025  00000+0  00000+0 0  9997",
            "Line2": "2 43603  54.2029 200.5165 0005090  27.3063 332.8132  1.86227192 42437",
            "SatelliteNumber": "43603",
            "Classification": "U",
            "LaunchYear": "18",
            "LaunchNumber": "067",
            "PieceOfLaunch": "B",
            "EpochYear": "24",
            "EpochDay": 323.9597622,
            "FirstDerivativeMeanMotion": 2.5e-07,
            "SecondDerivativeMeanMotion": "00000+0",
            "BSTAR": "00000+0",
            "SetNumber": "999",
            "Inclination": 54.2029,
            "RAAN": 200.5165,
            "Eccentricity": 0.000509,
            "ArgumentOfPerigee": 27.3063,
            "MeanAnomaly": 332.8132,
            "MeanMotion": 1.86227192,
            "RevolutionNumber": "4243"
        }
    ]
}